{"type":"FeatureCollection","geocoding":{"creation_date":"2018-04-23","generator":{"author":{"name":"Mapzen"},"package":"fences-builder","version":"0.1.2"},"license":"ODbL (see http://www.openstreetmap.org/copyright)"},"features":[{"id":287827,"osm_type":"relation","type":"Feature","name":"Belize","properties":{"flag":"http://upload.wikimedia.org/wikipedia/commons/e/e7/Flag_of_Belize.svg","name":"Belize","name:af":"Belize","name:ak":"Beliz","name:am":"ቤሊዝ","name:an":"Belize","name:ar":"بليز","name:ay":"Wilisi","name:az":"Beliz","name:ba":"Белиз","name:be":"Белі́з","name:bg":"Белиз","name:bm":"Belizi","name:bn":"বেলিজ","name:bo":"བེ་ལི་ཛི།","name:br":"Belize","name:bs":"Beliz","name:ca":"Belize","name:ce":"Бели́з","name:cs":"Belize","name:cv":"Белиз","name:cy":"Belîs","name:da":"Belize","name:de":"Belize","name:dv":"ބެލީޒު","name:dz":"བེ་ལིཛ།","name:ee":"Belize","name:el":"Μπελίζ","name:en":"Belize","name:eo":"Belizo","name:es":"Belice","name:et":"Belize","name:eu":"Belize","name:fa":"بلیز","name:ff":"Beliise","name:fi":"Belize","name:fo":"Belis","name:fr":"Belize","name:fy":"Belize","name:ga":"an Bheilís","name:gd":"Beilise","name:gl":"Belice","name:gn":"Mbelise","name:gu":"બેલીઝ","name:gv":"yn Veleesh","name:ha":"Beliz","name:he":"בליז","name:hi":"बेलीज़","name:hr":"Belize","name:ht":"Beliz","name:hu":"Belize","name:hy":"Բելիզ","name:ia":"Belize","name:id":"Belize","name:ie":"Belize","name:io":"Belize","name:is":"Belís","name:it":"Belize","name:ja":"ベリーズ","name:jv":"Belize","name:ka":"ბელიზი","name:kk":"Бели́з","name:km":"បេលីហ្ស","name:kn":"ಬೆಲೀಜ್","name:ko":"벨리즈","name:ks":"بیلِج","name:ku":"Belîze","name:kw":"Belisa","name:ky":"Белиз","name:la":"Beliza","name:lb":"Belize","name:li":"Belize","name:ln":"Belize","name:lo":"ເບຊີວ","name:lt":"Belizas","name:lv":"Beliza","name:mg":"Belizy","name:mk":"Белизе","name:ml":"ബെലീസ്","name:mn":"Белиз","name:mr":"बेलिझ","name:ms":"Belize","name:mt":"Beliże","name:my":"ဘလိဇ်","name:na":"Berij","name:ne":"बेलिज","name:nl":"Belize","name:nn":"Belize","name:no":"Belize","name:oc":"Belize","name:om":"Beliiz","name:or":"ବେଲିଜ","name:os":"Белиз","name:pa":"ਬੇਲੀਜ਼","name:pi":"बेलीज","name:pl":"Belize","name:ps":"بېلیز","name:pt":"Belize","name:qu":"Bilisi","name:rm":"Belize","name:ro":"Belize","name:ru":"Бели́з","name:rw":"Belize","name:sa":"बेलीज","name:sc":"Belize","name:se":"Belize","name:sg":"Belîzi","name:sh":"Belize","name:si":"බෙලීස්","name:sk":"Belize","name:sl":"Belize","name:sm":"Pelisi","name:sn":"Belize","name:so":"Belise","name:sq":"Beliza","name:sr":"Белизе","name:ss":"iBhelizi","name:su":"Bélis","name:sv":"Belize","name:sw":"Belize","name:ta":"பெலீசு","name:te":"బెలిజ్","name:tg":"Белѝз","name:th":"เบลีซ","name:ti":"ቤሊዘ","name:tl":"Belise","name:to":"Pelise","name:tr":"Belize","name:tt":"Бели́з","name:ug":"بېلىز","name:uk":"Белі́з","name:ur":"بیلیز","name:uz":"Beliz","name:vi":"Belize","name:vo":"Belisän","name:wo":"Beliis","name:yi":"בעליז","name:yo":"Bẹ̀lísè","name:za":"Belize","name:zh":"伯利兹","name:zu":"Belize","boundary":"administrative","name:ace":"Belize","name:ady":"Белиз","name:als":"Belize","name:ang":"Belīs","name:arz":"بيليز","name:ast":"Belize","name:azb":"بلیز","name:bar":"Belize","name:bcl":"Belisa","name:bpy":"বেলিজ","name:bxr":"Белиз","name:cdo":"Belize","name:ceb":"Belize","name:chr":"ᏇᎵᏍ","name:ckb":"بەلیز","name:crh":"Beliz","name:diq":"Beliz","name:dsb":"Belize","name:dty":"बेलिज","name:ext":"Belici","name:frp":"Belize","name:frr":"Belize","name:gag":"Beliz","name:gom":"बेलिझ","name:hak":"Belize","name:hif":"Belize","name:hsb":"Belize","name:ilo":"Belis","name:jam":"Biliiz","name:jbo":"beliz","name:kaa":"Beliz","name:kab":"Belize","name:kbp":"Peliizi","name:lad":"Belize","name:lij":"Belize","name:lmo":"Belize","name:mai":"बेलिज","name:mhr":"Белиз","name:mrj":"Белиз","name:mzn":"بلیز","name:nah":"Belice","name:nds":"Belize","name:new":"बेलिज","name:nov":"Beliz","name:olo":"Belize","name:pam":"Belize","name:pap":"Belize","name:pih":"Beles","name:pms":"Belize","name:pnb":"بیلیز","name:rue":"Беліз","name:sah":"Белиз","name:scn":"Belizi","name:sco":"Belize","name:szl":"Belize","name:tet":"Belize","name:tzl":"Beliça","name:vec":"Belize","name:vep":"Beliz","name:war":"Belize","name:wuu":"伯利茲","name:xal":"Белсин","name:xmf":"ბელიზი","name:zea":"Belize","timezone":"America/Belize","wikidata":"Q242","ISO3166-1":"BZ","wikipedia":"en:Belize","admin_level":"2","alt_name:bg":"Белийз","alt_name:fr":"Bélize","alt_name:gd":"A' Bheilìs;Belìos","alt_name:gn":"Velíse","alt_name:mk":"Белисе","alt_name:pa":"ਬਲੀਜ਼","border_type":"nation","name:simple":"Belize","name:zh-yue":"伯利茲","old_name:af":"Brits-Honduras","old_name:an":"Honduras Britanica","old_name:ar":"هندوراس البريطانية","old_name:az":"Britaniya Hondurası","old_name:ba":"Британия Гондурасы","old_name:bg":"Британски Хондурас","old_name:br":"Honduras Breizh-Veur","old_name:bs":"Britanski Honduras","old_name:ca":"Hondures Britànica","old_name:ce":"Брита́нски Гондура́с","old_name:cs":"Britský Honduras","old_name:da":"Britisk Honduras","old_name:de":"Britisch-Honduras","old_name:el":"Βρετανική Ονδούρα","old_name:eo":"Brita Honduro","old_name:es":"Honduras Británica","old_name:et":"Briti Honduras","old_name:eu":"Britainiar Honduras","old_name:fi":"Brittiläinen Honduras","old_name:fo":"Bretska Honduras","old_name:fr":"Honduras britannique","old_name:fy":"Britsk-Hondûras","old_name:gd":"Hondùras Bhreatannaich","old_name:gl":"Honduras Británica","old_name:he":"הונדורס הבריטית","old_name:hr":"Britanski Honduras","old_name:hu":"Brit Honduras","old_name:ia":"Honduras Britannic","old_name:id":"Honduras Britania","old_name:ie":"Britannic Honduras","old_name:io":"Britaniana Honduras","old_name:is":"Breska Hondúras","old_name:it":"Honduras Britannico","old_name:ja":"イギリス領ホンジュラス","old_name:jv":"Honduras Britania","old_name:ku":"Honûrasa Brîtanî","old_name:la":"Honduria Britannica","old_name:li":"Brits Honduras","old_name:lt":"Britų Hondūru","old_name:lv":"Britu Hondurasu","old_name:ml":"ബ്രിട്ടീഷ് ഹോണ്ടുറാസ്","old_name:ms":"Honduras British","old_name:nl":"Brits-Honduras","old_name:nn":"Britisk Honduras","old_name:no":"Britisk Honduras","old_name:pl":"Honduras Brytyjski","old_name:pt":"Honduras Britânicas","old_name:ro":"Hondurasul Britanic","old_name:ru":"Брита́нский Гондура́с","old_name:sc":"Honduras Britànnicu","old_name:sh":"Britanski Honduras","old_name:sk":"Britský Honduras","old_name:sl":"Britanski Honduras","old_name:sq":"Hondurasi britanik","old_name:su":"Honduras Britania","old_name:sv":"Brittiska Honduras","old_name:sw":"Honduras ya Kiingereza","old_name:tr":"Britanya Hondurası","old_name:uk":"Британський Гондурас","old_name:vi":"Honduras thuộc Anh","old_name:zh":"英属洪都拉斯","alt_name:mzn":"بلز","alt_name:war":"Belice","name:bat-smg":"Belėzos","name:cbk-zam":"Belice","name:fiu-vro":"Belize","name:roa-rup":"Belize","old_name:als":"britischi Chronkolonii","old_name:ang":"Bryttisc Honduras","old_name:ast":"Hondures Británica","old_name:bar":"Britisch-Honduras","old_name:ceb":"British Honduras","old_name:ckb":"ھۆندووراسی بریتانی","old_name:ext":"Honduras Británica","old_name:hif":"British Honduras","old_name:lij":"Honduras Britannego","old_name:lmo":"Honduras Britànich","old_name:nds":"Britisch-Honduras","old_name:nov":"Honduras Britanic","old_name:pms":"Honduras Britànich","old_name:sco":"British Honduras","old_name:szl":"Brytyjski Hůnduras","old_name:vep":"Britanijan Gonduras:aks","old_name:wuu":"英屬洪都拉斯","old_name:xmf":"ბრიტანეთიშ ჰონდურასი","old_name:zea":"Brits-Honduras","official_name":"Commonwealth of Belize","name:be-tarask":"Бэліз","is_in:continent":"North America","name:zh-min-nan":"Belize","old_name:zh-yue":"英屬洪都拉斯","ISO3166-1:alpha2":"BZ","ISO3166-1:alpha3":"BLZ","official_name:ay":"Wilisi Suyu","official_name:en":"Commonwealth of Belize","official_name:kk":"Белиз Республикасы","official_name:mn":"Белиз улс","official_name:my":"ဘလိဇ်နိုင်ငံ","ISO3166-1:numeric":"084","name:zh-classical":"伯利兹","official_name:nah":"Tlacatlahtohcayotl Belice","official_name:xal":"Белсин Орн"},"geometry":{"type":"MultiPolygon","coordinates":[[[[-87.6863799,16.9023217],[-87.6864835,16.9001493],[-87.6871828,16.8964101],[-87.6890881,16.8932988],[-87.6928488,16.8898891],[-87.702567,16.8837809],[-87.7132512,16.876027],[-87.716979,16.8729751],[-87.7212536,16.8677683],[-87.724139,16.862581],[-87.7279311,16.8524682],[-87.7293569,16.8491591],[-87.7311058,16.8421871],[-87.7351754,16.8248736],[-87.7352051,16.8202759],[-87.7352343,16.8133992],[-87.7358224,16.8055122],[-87.7361296,16.8030609],[-87.737401,16.800373],[-87.7392718,16.7966761],[-87.7412713,16.793712],[-87.7436275,16.7913454],[-87.7479259,16.7865374],[-87.7507757,16.7830272],[-87.7573448,16.7730486],[-87.7585842,16.7704343],[-87.7598896,16.766776],[-87.7610456,16.7619512],[-87.7632613,16.758026],[-87.7648459,16.7563056],[-87.7662069,16.7552938],[-87.7675941,16.7545592],[-87.7700032,16.7536704],[-87.7750434,16.7517543],[-87.7789414,16.7508307],[-87.7856694,16.7496867],[-87.7890705,16.7488118],[-87.7916013,16.7475452],[-87.7937806,16.7462332],[-87.7999718,16.741349],[-87.8061868,16.737504],[-87.8086771,16.7364218],[-87.8114123,16.7353618],[-87.8188833,16.7327858],[-87.8230972,16.7305663],[-87.8306286,16.7243748],[-87.8399071,16.7147994],[-87.8421545,16.7128295],[-87.8480359,16.7095429],[-87.8521516,16.7082642],[-87.8568252,16.7071088],[-87.8629492,16.7072033],[-87.8664899,16.7075765],[-87.8710717,16.709501],[-87.8776179,16.7121202],[-87.8817976,16.7137828],[-87.8862215,16.7151131],[-87.8882247,16.7160166],[-87.8894668,16.7171007],[-87.8899661,16.7184404],[-87.8905912,16.7211214],[-87.8907945,16.7244456],[-87.8893631,16.7322361],[-87.8871483,16.7414222],[-87.8837209,16.7522086],[-87.8807278,16.758551],[-87.8749633,16.7689161],[-87.8633383,16.7939821],[-87.8602381,16.7993336],[-87.8572469,16.8056216],[-87.8553616,16.8132565],[-87.8518534,16.8247867],[-87.8486083,16.832737],[-87.8452524,16.8396532],[-87.8414059,16.8456804],[-87.8304898,16.8611427],[-87.8190035,16.8760938],[-87.8123707,16.8856559],[-87.8069755,16.8998551],[-87.8032202,16.9095679],[-87.8001732,16.9167429],[-87.7987671,16.9197735],[-87.7974701,16.9218829],[-87.7963532,16.9235283],[-87.7950107,16.924302],[-87.7922249,16.9251997],[-87.7898453,16.9256492],[-87.7833843,16.9258369],[-87.7773147,16.9254438],[-87.7755225,16.92522],[-87.7666715,16.9223707],[-87.7557485,16.9199988],[-87.7423002,16.917319],[-87.7390202,16.9169478],[-87.7340653,16.9166044],[-87.7289088,16.9164937],[-87.7172569,16.9183589],[-87.7116861,16.9189189],[-87.7080906,16.9189839],[-87.7037783,16.9187577],[-87.6994447,16.9178568],[-87.6964995,16.9166181],[-87.6933886,16.9141532],[-87.6913257,16.9120269],[-87.6888388,16.9091114],[-87.6871569,16.9052914],[-87.6863799,16.9023217]]],[[[-87.4270882,17.0632081],[-87.6315407,17.0077903],[-87.9324507,17.0569125],[-88.0191303,16.9132266],[-88.1098315,16.7787579],[-88.147179,16.6220415],[-88.1459173,16.4967766],[-88.145116,16.4171805],[-88.2464168,16.3724114],[-88.3454411,16.2522483],[-88.4983773,16.0699561],[-88.6861243,16.0509903],[-88.7706305,15.958374],[-88.9081013,15.906108],[-88.9127835,15.9001292],[-88.9155824,15.8973943],[-88.9168014,15.8935885],[-88.9177141,15.8910158],[-88.918442,15.889668],[-88.91982,15.8885617],[-88.921258,15.8879704],[-88.9222406,15.8876121],[-88.9228184,15.8874542],[-88.9235724,15.8874019],[-88.9247176,15.8873843],[-88.9265635,15.8876823],[-88.9276861,15.8879154],[-88.930986,15.8886479],[-88.934103,15.8896199],[-88.9356051,15.8899295],[-88.9373556,15.8902202],[-88.941944,15.89],[-88.945034,15.8898588],[-88.9495521,15.8894025],[-88.9514511,15.8888558],[-88.9550889,15.8882877],[-88.9573078,15.8883752],[-88.9594191,15.8890221],[-88.9611938,15.890126],[-88.9630317,15.8916594],[-88.9645934,15.8929361],[-88.9665035,15.8941561],[-88.9681293,15.8948127],[-88.969885,15.8951308],[-88.9721675,15.8954148],[-88.9760749,15.8956256],[-88.9819743,15.8959114],[-88.9836403,15.8963167],[-88.9852706,15.8979933],[-88.9902699,15.9025906],[-88.9935101,15.9042002],[-88.9949529,15.9043856],[-88.9966729,15.904037],[-88.9976548,15.9034476],[-88.997989,15.9030576],[-89.0002885,15.8998408],[-89.0010334,15.8987841],[-89.0020204,15.8980677],[-89.0036405,15.8977633],[-89.0077189,15.8972797],[-89.010624,15.8969394],[-89.0131939,15.8961513],[-89.0179799,15.8946827],[-89.0190228,15.8944319],[-89.0200098,15.8947543],[-89.0207361,15.8953633],[-89.0209595,15.8961513],[-89.0209968,15.8977454],[-89.0204195,15.9000558],[-89.0190228,15.90319],[-89.0181475,15.9050347],[-89.0177937,15.9065212],[-89.0179986,15.9078823],[-89.0183151,15.909136],[-89.0189483,15.9102105],[-89.0202891,15.9110881],[-89.0217789,15.9114821],[-89.0241626,15.9115358],[-89.0294328,15.9112851],[-89.0311833,15.9113567],[-89.0327849,15.9120015],[-89.0364722,15.9137744],[-89.038353,15.9144192],[-89.0399918,15.9148132],[-89.0413513,15.9146878],[-89.0423941,15.9143117],[-89.0433253,15.9135237],[-89.0439212,15.9121447],[-89.0450758,15.9082047],[-89.0457276,15.9055899],[-89.0464911,15.9037094],[-89.0472919,15.9028855],[-89.0486141,15.9021333],[-89.0496942,15.9019363],[-89.0511095,15.9021154],[-89.0520593,15.9026348],[-89.0523758,15.9034228],[-89.0523014,15.9049273],[-89.0519662,15.9066466],[-89.051482,15.9092614],[-89.0515378,15.9132193],[-89.0516123,15.9144192],[-89.052022,15.9151355],[-89.0528973,15.916407],[-89.0535863,15.9170338],[-89.0546403,15.9173394],[-89.0547968,15.9173383],[-89.0560073,15.916998],[-89.0572177,15.9167831],[-89.0585399,15.9160489],[-89.0590427,15.9154758],[-89.0594524,15.9148311],[-89.0595642,15.9140252],[-89.0593966,15.9123596],[-89.05908,15.9109806],[-89.0592503,15.9098998],[-89.05962,15.9091718],[-89.0602346,15.9087599],[-89.0613706,15.9084375],[-89.0629162,15.9082047],[-89.0638287,15.9077749],[-89.0641232,15.9072395],[-89.0642532,15.9061506],[-89.0630933,15.9033492],[-89.0629721,15.9023303],[-89.0631203,15.9011899],[-89.0637356,15.9007364],[-89.0649647,15.900414],[-89.065691,15.9007005],[-89.0658586,15.9012378],[-89.0661379,15.9021512],[-89.0669015,15.9034945],[-89.0680933,15.904784],[-89.0705909,15.907118],[-89.0727676,15.9092793],[-89.0735684,15.9097449],[-89.0744809,15.9100135],[-89.0747445,15.9098673],[-89.0757839,15.90907],[-89.0762314,15.9080256],[-89.0769204,15.9047482],[-89.077386,15.9012199],[-89.0776839,15.899017],[-89.0781309,15.8980677],[-89.0788199,15.8975842],[-89.0796766,15.8971901],[-89.0802911,15.8976379],[-89.0807194,15.8985692],[-89.0808213,15.8993712],[-89.0813712,15.9015065],[-89.082023,15.9026348],[-89.0830315,15.9043446],[-89.084512,15.9064289],[-89.0862716,15.9081417],[-89.0885782,15.9096374],[-89.0921162,15.9106519],[-89.095198,15.9115053],[-89.0978158,15.9119593],[-89.1004551,15.9122688],[-89.1029734,15.9124134],[-89.1044632,15.9121805],[-89.1055061,15.9116433],[-89.1062324,15.9105508],[-89.1066793,15.9089032],[-89.1074056,15.9074346],[-89.1078898,15.9067899],[-89.1088768,15.9063242],[-89.1107119,15.9062225],[-89.1133276,15.9065749],[-89.1150595,15.9070048],[-89.1156554,15.9071122],[-89.1164934,15.9068973],[-89.11681,15.9065212],[-89.1173501,15.9059839],[-89.1173839,15.905535],[-89.1172383,15.9043542],[-89.1169404,15.9035482],[-89.1161955,15.9027423],[-89.1141097,15.9010946],[-89.1132717,15.9005393],[-89.1128434,15.8999662],[-89.1126944,15.8993394],[-89.112862,15.898014],[-89.1130669,15.8969394],[-89.113821,15.8962507],[-89.1149664,15.8957752],[-89.115823,15.896008],[-89.1162327,15.8967066],[-89.1163767,15.8979679],[-89.1166238,15.8993035],[-89.1171825,15.9004677],[-89.1184302,15.9023124],[-89.1190633,15.9028855],[-89.1198314,15.9033541],[-89.1209628,15.9032975],[-89.1216936,15.9030774],[-89.1226575,15.9023662],[-89.1243894,15.9008796],[-89.1264379,15.8995006],[-89.1274994,15.8993215],[-89.1283933,15.8996259],[-89.1287657,15.9001453],[-89.1287098,15.9006647],[-89.1289147,15.90319],[-89.1295106,15.904981],[-89.1302555,15.9063063],[-89.1310563,15.907148],[-89.132453,15.9073092],[-89.1341104,15.906951],[-89.1354698,15.9064675],[-89.1361402,15.905769],[-89.1362706,15.9048735],[-89.1364941,15.9029751],[-89.1367734,15.9020975],[-89.1375928,15.9015602],[-89.1398275,15.9004677],[-89.1449301,15.898408],[-89.1480215,15.8969036],[-89.1488595,15.8964379],[-89.1496602,15.8965274],[-89.1506286,15.8973155],[-89.1516901,15.8981394],[-89.1524909,15.8984439],[-89.1533289,15.898211],[-89.1556009,15.8979603],[-89.156681,15.8984259],[-89.1583384,15.8990707],[-89.1595675,15.8992319],[-89.1612621,15.8989633],[-89.1624819,15.899073],[-89.1632827,15.8997222],[-89.1635574,15.9005058],[-89.1632501,15.9025833],[-89.1635015,15.9034699],[-89.1642231,15.9041191],[-89.1653172,15.9045803],[-89.1666813,15.9050146],[-89.1680687,15.905628],[-89.1685715,15.9061294],[-89.1688741,15.9068772],[-89.1688508,15.9082651],[-89.1689067,15.9095904],[-89.1691674,15.9101232],[-89.1696237,15.9106068],[-89.1716349,15.9114082],[-89.1728267,15.9119768],[-89.173851,15.9126036],[-89.1757086,15.9132797],[-89.1764907,15.9132797],[-89.1773567,15.9130379],[-89.1780504,15.9125723],[-89.1800663,15.9108665],[-89.1808577,15.9104322],[-89.1818354,15.9101009],[-89.1830831,15.9098456],[-89.1859836,15.9095322],[-89.1870591,15.9091203],[-89.1875339,15.9087487],[-89.1878412,15.9082114],[-89.1878598,15.9076965],[-89.1876596,15.9067787],[-89.1871754,15.9057444],[-89.1862024,15.9032863],[-89.1860162,15.9024938],[-89.1860767,15.9017102],[-89.1863654,15.9008371],[-89.1866494,15.89987],[-89.1866819,15.8992834],[-89.1867658,15.8986834],[-89.1869287,15.8983431],[-89.1874688,15.8977118],[-89.1879483,15.8976267],[-89.1885349,15.8977879],[-89.1900061,15.8989252],[-89.1908907,15.8995073],[-89.1917752,15.8999998],[-89.1929019,15.9002416],[-89.194131,15.9007073],[-89.1948945,15.9011908],[-89.1957255,15.9019274],[-89.1961073,15.9022744],[-89.19648,15.9024647],[-89.1969477,15.9025139],[-89.1973038,15.9024042],[-89.1976111,15.9021871],[-89.198086,15.9014483],[-89.1985841,15.9009558],[-89.1994035,15.9004296],[-89.2004394,15.8998565],[-89.2008817,15.8995341],[-89.2020968,15.8983476],[-89.2027998,15.8977118],[-89.2033631,15.8975416],[-89.2038612,15.8975239],[-89.2046388,15.8978371],[-89.2056397,15.8982625],[-89.2069061,15.8984774],[-89.2078445,15.8984744],[-89.2087357,15.8984013],[-89.2098065,15.8980431],[-89.211301,15.8975461],[-89.2124649,15.8969371],[-89.2140153,15.8959879],[-89.214951,15.8953924],[-89.2157053,15.8947118],[-89.2160743,15.8940906],[-89.2160535,15.8935877],[-89.2159334,15.8931715],[-89.2156879,15.8928965],[-89.2152583,15.8925356],[-89.2146577,15.8922983],[-89.2134938,15.892267],[-89.2132331,15.8921864],[-89.2130003,15.8920655],[-89.2129811,15.8917618],[-89.2131726,15.8915416],[-89.2134752,15.8912863],[-89.2138634,15.8911954],[-89.2154486,15.8910547],[-89.2158961,15.8909774],[-89.2163496,15.8907177],[-89.2166488,15.8903309],[-89.216906,15.8896255],[-89.2171203,15.8880268],[-89.217468,15.8873993],[-89.2178602,15.8871814],[-89.2182395,15.8870511],[-89.2195694,15.887337],[-89.2200441,15.8873687],[-89.2202957,15.8872922],[-89.2205937,15.8869563],[-89.2218496,15.8858647],[-89.2223301,15.8857286],[-89.2229831,15.885906],[-89.2235261,15.8867076],[-89.224631,15.8873214],[-89.2250023,15.8880059],[-89.2250168,15.8888193],[-89.2244874,15.8901602],[-89.2244912,15.8907329],[-89.2246842,15.891097],[-89.2247793,15.891268],[-89.2248788,15.8914814],[-89.2250338,15.8917004],[-89.2251442,15.8917618],[-89.2252671,15.8918936],[-89.2253092,15.89221],[-89.2253877,15.8924032],[-89.2254106,15.8925835],[-89.2253035,15.8927601],[-89.2252346,15.8929404],[-89.2251677,15.8931097],[-89.2250605,15.8932937],[-89.2250127,15.893417],[-89.2249094,15.8935531],[-89.224831,15.8937132],[-89.2247468,15.8939358],[-89.2247468,15.8940167],[-89.2247315,15.8944233],[-89.2247105,15.8947085],[-89.2247143,15.8949532],[-89.2248367,15.8951464],[-89.2250644,15.8952807],[-89.2253073,15.8954205],[-89.2255484,15.8955162],[-89.2257071,15.8955696],[-89.2259176,15.8956432],[-89.2260381,15.8956726],[-89.2262083,15.8957204],[-89.2223662,15.956492],[-89.2138874,16.0905406],[-89.2126403,16.1102481],[-89.2066688,16.2045929],[-89.2027473,16.2665244],[-89.2006932,16.2946876],[-89.1929743,16.4004856],[-89.1918607,16.4341583],[-89.1891505,16.4737633],[-89.1722554,16.720469],[-89.1653457,16.8212747],[-89.1651191,16.8245795],[-89.1624411,16.8661468],[-89.1577887,16.9383393],[-89.1554884,16.9740232],[-89.1504486,17.0521801],[-89.1500042,17.0590708],[-89.150044,17.0749845],[-89.1504458,17.2355233],[-89.1504572,17.2400532],[-89.1505203,17.2652431],[-89.1505218,17.2658401],[-89.1505338,17.2706531],[-89.1506454,17.315181],[-89.1506901,17.3330571],[-89.1507564,17.3595011],[-89.1508287,17.3883353],[-89.1509793,17.448446],[-89.1511539,17.5180797],[-89.1512823,17.5692494],[-89.1513463,17.5947776],[-89.1514089,17.6196952],[-89.1514577,17.639157],[-89.1515281,17.6672013],[-89.151563,17.6811154],[-89.1516374,17.7107294],[-89.1519008,17.8156288],[-89.1519118,17.8399908],[-89.1519151,17.8474186],[-89.1519261,17.8717953],[-89.1519446,17.9128572],[-89.151956,17.938272],[-89.1519566,17.9395269],[-89.1509366,17.9404502],[-89.1500665,17.9416794],[-89.1491545,17.9421127],[-89.1480691,17.9425325],[-89.1473846,17.9434837],[-89.1469991,17.9447117],[-89.1457686,17.9461077],[-89.1454283,17.9487671],[-89.1449709,17.951071],[-89.139437,17.9537046],[-89.1374406,17.9540911],[-89.1367173,17.9546223],[-89.1362108,17.9554399],[-89.1359276,17.9561665],[-89.1357437,17.9568476],[-89.1356034,17.9578594],[-89.1357135,17.9586393],[-89.135731,17.959064],[-89.1356003,17.95951],[-89.1351995,17.9599047],[-89.1342592,17.9601496],[-89.1336391,17.9603994],[-89.1334591,17.9608447],[-89.1338159,17.9616048],[-89.1338067,17.962147],[-89.1337229,17.9641974],[-89.1334901,17.965294],[-89.132844,17.9665019],[-89.1328911,17.9674682],[-89.1327576,17.9681735],[-89.1326827,17.9686199],[-89.1327831,17.9688562],[-89.1331769,17.9691487],[-89.1336747,17.9692365],[-89.1338727,17.9694803],[-89.1339396,17.9698781],[-89.133971,17.9702764],[-89.133993,17.9706243],[-89.1339675,17.9712182],[-89.1333813,17.9713137],[-89.1329626,17.9713104],[-89.1327532,17.9715926],[-89.1327052,17.9720341],[-89.1323259,17.9722079],[-89.132008,17.9723301],[-89.1316453,17.9724104],[-89.131173,17.972229],[-89.1308192,17.9723092],[-89.130582,17.9725069],[-89.130532,17.9727703],[-89.1305802,17.973092],[-89.1303661,17.973259],[-89.1297802,17.9732231],[-89.1294175,17.9733034],[-89.1290311,17.9736299],[-89.1286175,17.9739058],[-89.1281309,17.9740129],[-89.1275094,17.9739604],[-89.1270009,17.9739333],[-89.1264624,17.9741512],[-89.1258539,17.9744462],[-89.1250163,17.9748709],[-89.124214,17.9752783],[-89.1238312,17.9751638],[-89.1234649,17.9749473],[-89.1233152,17.9743044],[-89.1231768,17.9733536],[-89.122911,17.9726356],[-89.1224086,17.9721578],[-89.1217037,17.9718178],[-89.121217,17.9719079],[-89.1206481,17.972107],[-89.1199458,17.971979],[-89.1193281,17.9715109],[-89.1188449,17.9705457],[-89.1183758,17.9698894],[-89.1175534,17.9693556],[-89.116694,17.9688622],[-89.1160471,17.9687445],[-89.1156754,17.9688164],[-89.1154646,17.9689968],[-89.1153507,17.969558],[-89.1151255,17.9700099],[-89.1148892,17.9702754],[-89.1144386,17.9704329],[-89.1138798,17.9704305],[-89.1134075,17.9702491],[-89.1128109,17.9700606],[-89.1122055,17.9698721],[-89.1115921,17.96976],[-89.1110006,17.9699954],[-89.1104244,17.9707734],[-89.1099294,17.971468],[-89.1093422,17.972068],[-89.1085863,17.9726529],[-89.1077583,17.9731453],[-89.1072467,17.9734205],[-89.1069584,17.9737968],[-89.1070151,17.974093],[-89.1069911,17.9743137],[-89.1068693,17.9745101],[-89.1067562,17.9746979],[-89.1067676,17.9749098],[-89.1070875,17.9749572],[-89.1073603,17.9747761],[-89.1076345,17.9747053],[-89.1077872,17.9748648],[-89.1078074,17.9750766],[-89.10773,17.975281],[-89.1075457,17.9754441],[-89.1073351,17.9756414],[-89.1071673,17.9757026],[-89.1069804,17.9756538],[-89.1068284,17.9755787],[-89.106745,17.9753481],[-89.1065322,17.975088],[-89.1062901,17.9750752],[-89.1059358,17.97508],[-89.1056008,17.9752532],[-89.1056127,17.975516],[-89.1057648,17.9756674],[-89.10597,17.9757241],[-89.1061858,17.9758018],[-89.1065087,17.9758292],[-89.1066024,17.9759377],[-89.1066217,17.9760732],[-89.1065975,17.976277],[-89.1064508,17.9763855],[-89.106175,17.9762495],[-89.1056383,17.9761772],[-89.1053908,17.9762477],[-89.1053492,17.9766169],[-89.105217,17.9769759],[-89.105011,17.9771895],[-89.1048698,17.9772388],[-89.1045138,17.9771072],[-89.1042391,17.977154],[-89.1041057,17.9775103],[-89.1040332,17.9777263],[-89.1038882,17.9778076],[-89.1037044,17.9777817],[-89.1034831,17.9777562],[-89.1032747,17.9777665],[-89.1031112,17.9778506],[-89.1031185,17.9781136],[-89.1033603,17.9784578],[-89.1034463,17.9787018],[-89.1034076,17.9789534],[-89.1033727,17.979173],[-89.103259,17.9794294],[-89.1031024,17.9795946],[-89.1028597,17.9802178],[-89.1019516,17.9809896],[-89.1013297,17.9813336],[-89.1007377,17.9813715],[-89.0999495,17.9813592],[-89.0986185,17.9813856],[-89.0978731,17.9812776],[-89.0960536,17.9818641],[-89.09542,17.9825558],[-89.0948001,17.9844045],[-89.0919817,17.9862341],[-89.0908145,17.9870982],[-89.0903596,17.987435],[-89.0897643,17.9876615],[-89.0891703,17.9878173],[-89.0879552,17.9882699],[-89.0871851,17.9886351],[-89.0868624,17.9887716],[-89.0858149,17.9895098],[-89.0854846,17.9900941],[-89.0850602,17.9904176],[-89.0842662,17.9907353],[-89.0823819,17.9914132],[-89.081514,17.9917298],[-89.0808158,17.992214],[-89.0801664,17.9927226],[-89.0793662,17.992987],[-89.0792689,17.9930191],[-89.0788034,17.9931729],[-89.0783296,17.9932977],[-89.0763529,17.9938182],[-89.0747497,17.9934722],[-89.0745852,17.9934367],[-89.0720342,17.9927598],[-89.0704604,17.99257],[-89.0697276,17.992149],[-89.0688988,17.9916728],[-89.0688602,17.9916521],[-89.0678294,17.9910986],[-89.0673606,17.9908468],[-89.0656842,17.9908911],[-89.0652951,17.9909142],[-89.0649935,17.9909321],[-89.0634889,17.9910215],[-89.0616515,17.9904029],[-89.0598518,17.9902488],[-89.0585976,17.9903074],[-89.0566788,17.9915505],[-89.0555391,17.9925782],[-89.0550914,17.9935771],[-89.0539223,17.9956468],[-89.0539144,17.9961432],[-89.0533005,17.9974036],[-89.0527114,17.9984548],[-89.0523847,17.999722],[-89.0522638,18.0001906],[-89.0518888,18.0001945],[-89.0512332,18.0002015],[-89.0504672,17.9996386],[-89.0500651,17.9994518],[-89.0497511,17.9993695],[-89.0495706,17.9992288],[-89.0491681,17.9992331],[-89.0491403,17.9994045],[-89.0492777,17.9996882],[-89.0491896,18.0000481],[-89.048823,18.0003348],[-89.0483628,18.0004965],[-89.0483051,18.0006682],[-89.047689,18.0008196],[-89.0476235,18.0008357],[-89.0455129,18.0013816],[-89.0448056,18.0015646],[-89.0444707,18.0023677],[-89.0441306,18.0026528],[-89.0435502,18.0035532],[-89.0425194,18.0037051],[-89.0419776,18.0035173],[-89.0417296,18.0034312],[-89.0406518,18.0037718],[-89.0404306,18.0038241],[-89.0399512,18.0039373],[-89.0398183,18.0039687],[-89.0396926,18.0040693],[-89.0392824,18.0043976],[-89.0382035,18.0046441],[-89.0375207,18.0051216],[-89.0361879,18.0046653],[-89.0360312,18.0038674],[-89.036654,18.003579],[-89.0368627,18.0034824],[-89.0369513,18.0026349],[-89.0358654,18.00227],[-89.0350302,18.0023258],[-89.0346207,18.0025702],[-89.033907,18.0029961],[-89.0333214,18.0033785],[-89.031939,18.0028756],[-89.0314398,18.0022224],[-89.0306586,18.0027009],[-89.0301265,18.003459],[-89.0285431,18.0025819],[-89.0281418,18.0018806],[-89.0289691,18.0008193],[-89.0291149,17.9994607],[-89.0290861,17.998694],[-89.0290812,17.998564],[-89.0289642,17.9982084],[-89.0288747,17.9976881],[-89.0286103,17.9973066],[-89.0279993,17.9970138],[-89.0274126,17.996745],[-89.0269457,17.9966668],[-89.0264534,17.9966354],[-89.0258162,17.9964365],[-89.0256634,17.9963877],[-89.0253506,17.9962876],[-89.0245988,17.9955916],[-89.0236031,17.9947503],[-89.0235908,17.9947361],[-89.0232514,17.994344],[-89.0231683,17.9942481],[-89.0227275,17.9937023],[-89.0225894,17.9935314],[-89.0221037,17.9931227],[-89.0218404,17.9929328],[-89.0215683,17.9927368],[-89.020686,17.9924632],[-89.0201929,17.9924789],[-89.0201246,17.9924515],[-89.0197035,17.9922824],[-89.0188437,17.9921271],[-89.0182057,17.9919754],[-89.0175192,17.9917757],[-89.0169826,17.9914606],[-89.0162288,17.9908825],[-89.015429,17.990115],[-89.0151618,17.9898984],[-89.0143768,17.9896972],[-89.0142127,17.9897595],[-89.0140791,17.9898103],[-89.013533,17.9900374],[-89.0130879,17.9901246],[-89.0126436,17.9901646],[-89.0120594,17.9897543],[-89.0117966,17.9895119],[-89.0109924,17.9887702],[-89.0101393,17.9882377],[-89.0095518,17.988016],[-89.0086388,17.9882666],[-89.0080909,17.988417],[-89.0064261,17.9878006],[-89.0047199,17.9866358],[-89.0045512,17.9865205],[-89.0025732,17.9854982],[-89.001718,17.9850835],[-89.0009848,17.9847415],[-89.0007078,17.9845039],[-89.0006206,17.984429],[-89.0005049,17.9840026],[-89.0005894,17.9837712],[-89.0008704,17.983752],[-89.0011504,17.9836473],[-89.0012246,17.9834266],[-89.0012639,17.983137],[-89.0011923,17.9828282],[-89.000969,17.9826758],[-89.0006337,17.9827851],[-89.0003872,17.9828447],[-89.0000719,17.9828357],[-88.9998449,17.9827321],[-88.999715,17.9825502],[-88.999747,17.9823625],[-88.9997778,17.9821538],[-88.9996274,17.9819435],[-88.9997698,17.9817725],[-88.9999471,17.9816322],[-89.0001845,17.9815239],[-89.0004376,17.9813054],[-89.0004904,17.9810686],[-89.0003608,17.9809111],[-89.0001081,17.9808139],[-88.9997766,17.9808865],[-88.9995106,17.9807223],[-88.9992959,17.9805697],[-88.9991537,17.9804246],[-88.9989987,17.9802796],[-88.9988726,17.980096],[-88.9988536,17.9799251],[-88.998946,17.979806],[-88.9990509,17.9796624],[-88.9991995,17.9796161],[-88.9994997,17.979564],[-88.9996574,17.9794407],[-88.9998343,17.9793355],[-89.0000486,17.9791508],[-89.0001671,17.9789428],[-89.0001847,17.9788088],[-89.0001896,17.9786749],[-89.0001815,17.9785229],[-89.0001926,17.9783829],[-89.0001207,17.9782133],[-89.0001318,17.9780672],[-89.0001302,17.9779213],[-89.0001282,17.9777449],[-89.000133,17.9776049],[-89.000081,17.9775142],[-89.0000927,17.9774168],[-89.0001178,17.9772931],[-89.0002506,17.9772249],[-89.0005165,17.9771065],[-89.000719,17.9770071],[-89.0010544,17.9768366],[-89.0017658,17.9767728],[-89.002292,17.9766071],[-89.0027264,17.9764744],[-89.0031359,17.976358],[-89.0035693,17.9761371],[-89.0038262,17.9758249],[-89.0039906,17.9755427],[-89.0041131,17.9752529],[-89.0040266,17.9750134],[-89.0038148,17.9748152],[-89.0036775,17.9745362],[-89.0036501,17.9743361],[-89.003629,17.9740359],[-89.003675,17.9736588],[-89.0037546,17.9732813],[-89.0039264,17.9729028],[-89.0039887,17.9724855],[-89.0036774,17.9723845],[-89.0032574,17.9723087],[-89.002637,17.9722991],[-89.0020918,17.9722647],[-89.0013014,17.9720939],[-89.0006432,17.9721749],[-89.0000971,17.9722933],[-88.9992868,17.972226],[-88.9981587,17.9716622],[-88.9979157,17.9709194],[-88.998134,17.9702039],[-88.9986203,17.9691122],[-88.9989026,17.9686946],[-88.9992321,17.9683489],[-88.9993148,17.9680208],[-88.999621,17.9674738],[-88.9990725,17.96696],[-88.9972288,17.9658707],[-88.996676,17.9654102],[-88.9962243,17.9647376],[-88.9958512,17.9639502],[-88.9953314,17.9626877],[-88.994593,17.9616841],[-88.9938862,17.9606583],[-88.9932347,17.960033],[-88.9929668,17.9597198],[-88.9930272,17.9592136],[-88.9933836,17.9585779],[-88.9935575,17.9582858],[-88.9936481,17.9581337],[-88.9937197,17.9578544],[-88.993739,17.9575828],[-88.9937978,17.9572192],[-88.9937532,17.9568772],[-88.9937737,17.9566753],[-88.9937398,17.9563185],[-88.9936298,17.9559311],[-88.9932142,17.9555068],[-88.9927421,17.9549357],[-88.9924023,17.9544808],[-88.9920774,17.9544483],[-88.9917925,17.9542645],[-88.9915279,17.9540869],[-88.9915317,17.9538293],[-88.9916694,17.9534995],[-88.9917788,17.9531904],[-88.9918164,17.9527898],[-88.9915843,17.9525088],[-88.9915294,17.9523825],[-88.9912769,17.9516923],[-88.9907959,17.951256],[-88.9903667,17.9507266],[-88.9902461,17.9506293],[-88.9897644,17.9502165],[-88.989498,17.9500449],[-88.9892386,17.949614],[-88.9890486,17.9493499],[-88.9888807,17.9491807],[-88.9885769,17.9487958],[-88.9884054,17.9485323],[-88.9882854,17.9484114],[-88.988163,17.9483848],[-88.9879174,17.9483552],[-88.9879168,17.9483787],[-88.9877259,17.9483481],[-88.9874736,17.9483678],[-88.9872266,17.9483039],[-88.9870869,17.9481162],[-88.9871174,17.9477705],[-88.9872266,17.9475309],[-88.9872238,17.9472843],[-88.9869561,17.9471801],[-88.9866213,17.9472329],[-88.9862351,17.9473026],[-88.9859187,17.9474703],[-88.986102,17.9477069],[-88.9862786,17.9479831],[-88.9862205,17.9482427],[-88.9860747,17.9485202],[-88.9859762,17.9487077],[-88.9857811,17.9490789],[-88.9855773,17.9500841],[-88.9853864,17.9507028],[-88.9852056,17.9515479],[-88.9853141,17.9520238],[-88.9855807,17.9527394],[-88.9853924,17.9535883],[-88.9855507,17.9539437],[-88.985616,17.9544035],[-88.9854306,17.9547425],[-88.9853749,17.955146],[-88.9853312,17.9556732],[-88.985062,17.9564685],[-88.9847493,17.9569568],[-88.9842634,17.9573483],[-88.9837598,17.9576906],[-88.9832523,17.9579819],[-88.9827887,17.9580606],[-88.9827212,17.9580506],[-88.9822718,17.9579837],[-88.9816473,17.9578397],[-88.9812483,17.9576165],[-88.9811318,17.9575513],[-88.9810586,17.9571574],[-88.9809896,17.9567926],[-88.9806828,17.9562898],[-88.9805906,17.9560517],[-88.9803436,17.9555163],[-88.9800847,17.955424],[-88.9798305,17.9553683],[-88.9795289,17.9553138],[-88.9792722,17.9554316],[-88.9790511,17.9556558],[-88.9788558,17.9558799],[-88.978558,17.9560775],[-88.9784707,17.9560938],[-88.9781114,17.9561772],[-88.9776771,17.956278],[-88.9771921,17.9562686],[-88.9767788,17.9562607],[-88.9763835,17.956253],[-88.9760188,17.956246],[-88.9757767,17.9561251],[-88.975824,17.9557381],[-88.9757408,17.9552127],[-88.9753879,17.9551916],[-88.975175,17.9553747],[-88.9749292,17.9557061],[-88.9747005,17.9560209],[-88.9745826,17.9562441],[-88.974196,17.956281],[-88.9739198,17.9561933],[-88.9737453,17.9559648],[-88.9736938,17.955762],[-88.9737809,17.9552269],[-88.9738961,17.9548285],[-88.9737632,17.9543269],[-88.9735303,17.9540999],[-88.9733046,17.95388],[-88.9732195,17.953647],[-88.9730271,17.9533612],[-88.9726995,17.9532905],[-88.9721942,17.9534765],[-88.9715924,17.9534909],[-88.9710896,17.9533454],[-88.97088,17.9529534],[-88.9707119,17.9526338],[-88.9704382,17.9524525],[-88.9700904,17.9524181],[-88.9696262,17.9524393],[-88.9692027,17.9525726],[-88.9685244,17.9533146],[-88.9680747,17.9538701],[-88.9675514,17.9541812],[-88.9667427,17.9541565],[-88.9661074,17.9542534],[-88.9654273,17.9541945],[-88.9649174,17.9539694],[-88.9616898,17.9525428],[-88.9597658,17.9517169],[-88.9590792,17.9522085],[-88.9581194,17.9535453],[-88.9569633,17.955138],[-88.9568179,17.9559598],[-88.9569124,17.9566447],[-88.956917,17.9566779],[-88.9568788,17.9566905],[-88.9563568,17.9568629],[-88.9550065,17.9567688],[-88.9544018,17.9563086],[-88.9546882,17.9550862],[-88.9538211,17.9546287],[-88.9521469,17.9555847],[-88.9511883,17.9564099],[-88.9509111,17.9566389],[-88.9505747,17.956324],[-88.9499895,17.9560972],[-88.9491717,17.9571854],[-88.9486506,17.9582337],[-88.9476267,17.9588804],[-88.9475727,17.9589145],[-88.9458325,17.9594422],[-88.9447796,17.9591299],[-88.9440566,17.9581328],[-88.9443551,17.9575586],[-88.9449376,17.9564382],[-88.9450758,17.9553608],[-88.9452116,17.9540682],[-88.9452721,17.9527404],[-88.944838,17.9516299],[-88.9442612,17.9506603],[-88.9427232,17.9505322],[-88.9418605,17.950589],[-88.940521,17.9500133],[-88.9397453,17.9495459],[-88.9391995,17.9487776],[-88.9384832,17.9479344],[-88.9378383,17.9471872],[-88.9373664,17.9464208],[-88.9373754,17.9451956],[-88.9382182,17.9440835],[-88.9387192,17.9428696],[-88.938762,17.9417385],[-88.937963,17.9406345],[-88.9372061,17.9399605],[-88.9360066,17.9399366],[-88.9352277,17.9408016],[-88.934643,17.9420664],[-88.9340122,17.9426465],[-88.9334922,17.9430821],[-88.932895,17.9433033],[-88.9318925,17.9432453],[-88.9313155,17.942864],[-88.9309729,17.942318],[-88.9304757,17.9413904],[-88.9305836,17.9403558],[-88.9311547,17.9392852],[-88.9311037,17.9387397],[-88.9310755,17.9384382],[-88.9309447,17.9370394],[-88.9306997,17.9349275],[-88.9313816,17.9336541],[-88.9329695,17.9333852],[-88.9339476,17.932798],[-88.9340317,17.9317638],[-88.9337406,17.9312804],[-88.9332617,17.931042],[-88.932204,17.930585],[-88.9297613,17.9303776],[-88.9277325,17.9301434],[-88.9269468,17.9297474],[-88.9262243,17.9289166],[-88.925677,17.9281041],[-88.9249515,17.9269861],[-88.9243178,17.9262622],[-88.9239662,17.9251347],[-88.9238989,17.9235433],[-88.9233342,17.9220621],[-88.9233021,17.9219777],[-88.9228622,17.9208239],[-88.9227225,17.9206551],[-88.9217652,17.9194993],[-88.9215974,17.9192225],[-88.9210108,17.9182541],[-88.9208402,17.9172829],[-88.9208879,17.916435],[-88.9204615,17.9158111],[-88.9197378,17.9156755],[-88.9185637,17.9157478],[-88.917712,17.9162729],[-88.9169221,17.9166454],[-88.9161624,17.9168657],[-88.9154288,17.9165689],[-88.9146593,17.9158774],[-88.9143437,17.9152337],[-88.9136363,17.9149802],[-88.9131173,17.9141417],[-88.9131378,17.9133875],[-88.9133761,17.9127803],[-88.9136409,17.9121029],[-88.9137398,17.9111856],[-88.9136821,17.9105945],[-88.9132865,17.9103507],[-88.9127764,17.9103832],[-88.9122126,17.9108779],[-88.9113932,17.9114635],[-88.9106027,17.9117752],[-88.9099386,17.9120248],[-88.9095658,17.9124962],[-88.9096315,17.9130005],[-88.9096342,17.913257],[-88.909637,17.9135171],[-88.9092959,17.9142804],[-88.908489,17.9149457],[-88.9081645,17.9151026],[-88.9078828,17.9154965],[-88.9076107,17.9155369],[-88.9071839,17.9158328],[-88.9065819,17.9158571],[-88.905943,17.9154986],[-88.9054926,17.9149558],[-88.9051387,17.9145931],[-88.9048155,17.9139898],[-88.9044554,17.9136162],[-88.9039069,17.9131563],[-88.9034819,17.9124853],[-88.9030335,17.9106117],[-88.9020754,17.9096252],[-88.9009861,17.9090284],[-88.899596,17.9085341],[-88.8984857,17.9078316],[-88.8975853,17.9070238],[-88.8962533,17.9061206],[-88.8951065,17.9059824],[-88.894391,17.9062582],[-88.893851,17.9069016],[-88.8933154,17.9074545],[-88.8927837,17.90739],[-88.8904357,17.9069049],[-88.8892492,17.9069563],[-88.8879764,17.9071379],[-88.8866804,17.9074421],[-88.8859854,17.9077832],[-88.8853569,17.9075616],[-88.88544,17.906555],[-88.8863831,17.9063508],[-88.8869469,17.9056158],[-88.8872772,17.9038193],[-88.8867612,17.9030644],[-88.8863387,17.9027235],[-88.885384,17.90252],[-88.8851752,17.9018838],[-88.8855912,17.9010894],[-88.8851743,17.9006983],[-88.8836415,17.9006775],[-88.8829967,17.90069],[-88.8826212,17.9006069],[-88.8825354,17.9004093],[-88.882471,17.900251],[-88.8825622,17.9000724],[-88.8827285,17.8999754],[-88.882927,17.8998733],[-88.8831416,17.8997354],[-88.883265,17.8994189],[-88.883383,17.8990004],[-88.8835439,17.8985103],[-88.8835761,17.8980509],[-88.8835332,17.8976833],[-88.8833937,17.8972239],[-88.8832167,17.8968614],[-88.8829645,17.8964071],[-88.8827231,17.8961314],[-88.8825139,17.8960038],[-88.8823208,17.8959477],[-88.8820848,17.8960753],[-88.8818702,17.8962744],[-88.8815322,17.8963918],[-88.8810387,17.8964173],[-88.8806525,17.8962948],[-88.8800775,17.8959358],[-88.8793781,17.8953997],[-88.878424,17.8946347],[-88.8776331,17.894391],[-88.8772045,17.8946163],[-88.8765851,17.895206],[-88.8756256,17.895929],[-88.87507,17.8960651],[-88.8745639,17.8959192],[-88.8739191,17.8955735],[-88.8735242,17.8950042],[-88.8729631,17.8946276],[-88.8722362,17.8944737],[-88.8716225,17.8946012],[-88.8709506,17.8946781],[-88.870236,17.894695],[-88.8694791,17.8946922],[-88.8688058,17.8948594],[-88.867605,17.895625],[-88.8666125,17.8961797],[-88.8658634,17.8959433],[-88.8654991,17.8954675],[-88.8652733,17.8947928],[-88.8635092,17.894256],[-88.8620459,17.8940387],[-88.8611592,17.8939855],[-88.8602775,17.8941045],[-88.8597661,17.8944613],[-88.8594456,17.8961198],[-88.8592716,17.8965739],[-88.859058,17.8972596],[-88.8586344,17.8979953],[-88.8584105,17.8986734],[-88.858185,17.8992285],[-88.8577913,17.8997751],[-88.857908,17.8999804],[-88.858664,17.8998927],[-88.8594178,17.899604],[-88.8598814,17.8997102],[-88.8602522,17.8999881],[-88.8604353,17.9004087],[-88.8604188,17.9008411],[-88.8601382,17.9011454],[-88.8595722,17.9013117],[-88.8589128,17.9015794],[-88.8583007,17.9019366],[-88.8582939,17.9021466],[-88.8582741,17.9027508],[-88.8578445,17.9032931],[-88.8576513,17.9033412],[-88.8573192,17.9034238],[-88.8563509,17.903178],[-88.855854,17.903447],[-88.8554693,17.9037807],[-88.8550293,17.9040604],[-88.8548845,17.9042697],[-88.8548416,17.9044432],[-88.8549328,17.9047342],[-88.8550562,17.9052345],[-88.8551795,17.9058215],[-88.8552439,17.906383],[-88.8552386,17.9066995],[-88.8551688,17.9069088],[-88.8549112,17.9071741],[-88.8546914,17.9073171],[-88.8543212,17.9074243],[-88.8541657,17.9076234],[-88.8540959,17.9078225],[-88.854112,17.9080011],[-88.854289,17.9081543],[-88.8545895,17.9083635],[-88.8547236,17.9085371],[-88.8547015,17.9087848],[-88.8544669,17.9090345],[-88.8542224,17.9093934],[-88.8540392,17.9097785],[-88.854094,17.9102882],[-88.8544464,17.9112269],[-88.854663,17.912365],[-88.8548881,17.9134048],[-88.8550558,17.9138462],[-88.8552254,17.9145974],[-88.8554823,17.915344],[-88.8554994,17.9159419],[-88.8554936,17.9164266],[-88.8552942,17.9169544],[-88.8550093,17.9176015],[-88.8555838,17.9178951],[-88.8562333,17.9181364],[-88.8565175,17.9185049],[-88.8563926,17.9189392],[-88.8555887,17.9194006],[-88.855032,17.9197875],[-88.8549656,17.9201312],[-88.8554728,17.9204979],[-88.8561827,17.9205952],[-88.8565196,17.9208498],[-88.8559922,17.9213129],[-88.8558921,17.9216808],[-88.8559288,17.9217717],[-88.8559917,17.9219273],[-88.8566442,17.9220483],[-88.8571256,17.9220024],[-88.8576565,17.9222448],[-88.8580385,17.9226846],[-88.8581838,17.9231782],[-88.8581124,17.9235022],[-88.8574366,17.9238489],[-88.8573981,17.9242927],[-88.8577028,17.9245579],[-88.858134,17.9245435],[-88.8590282,17.9244627],[-88.859419,17.9247168],[-88.8594348,17.925191],[-88.8589502,17.9254702],[-88.8584387,17.9256313],[-88.8576661,17.9253753],[-88.8571365,17.9252566],[-88.856741,17.9255904],[-88.8562374,17.9259046],[-88.8556038,17.9261581],[-88.855435,17.9265103],[-88.8555188,17.9273139],[-88.8556552,17.9279894],[-88.8554347,17.9285587],[-88.8547335,17.9295657],[-88.8541078,17.9306096],[-88.853401,17.931772],[-88.8528925,17.9325044],[-88.8525939,17.9330608],[-88.8522085,17.933477],[-88.8517272,17.9336831],[-88.85146,17.9336886],[-88.850723,17.9337036],[-88.8502352,17.9338238],[-88.8500284,17.9338747],[-88.8494006,17.9343069],[-88.8483547,17.9356012],[-88.8479606,17.9364875],[-88.8474001,17.9370052],[-88.8461678,17.9371023],[-88.8457067,17.9371386],[-88.845034,17.9371916],[-88.8439111,17.9374348],[-88.8434874,17.9378836],[-88.8435389,17.9384453],[-88.843953,17.9388624],[-88.8444964,17.9394707],[-88.8445495,17.9399828],[-88.8442656,17.9402693],[-88.8429995,17.9402677],[-88.842563,17.9402671],[-88.8414478,17.94018],[-88.8394124,17.9400209],[-88.8379866,17.9402222],[-88.834994,17.9412059],[-88.8337175,17.9419282],[-88.8341733,17.9432606],[-88.8339624,17.9446468],[-88.8337984,17.9452323],[-88.8333421,17.9456925],[-88.8325937,17.9460272],[-88.8325304,17.9460327],[-88.831806,17.9460948],[-88.830843,17.9460771],[-88.8300533,17.9464015],[-88.8299014,17.9467898],[-88.8298059,17.9470337],[-88.8302541,17.9477458],[-88.8306112,17.9482564],[-88.8305424,17.948771],[-88.830495,17.948769],[-88.8298575,17.9487408],[-88.8284129,17.9475248],[-88.8272655,17.9471418],[-88.8266326,17.9468663],[-88.8258985,17.9466825],[-88.8251223,17.9467625],[-88.8242437,17.9470312],[-88.8231161,17.9475079],[-88.8223799,17.9482812],[-88.8218525,17.9489532],[-88.8212903,17.9493719],[-88.8197054,17.9494091],[-88.818221,17.9493651],[-88.8163899,17.949428],[-88.8151713,17.9502992],[-88.8142862,17.9516155],[-88.8142054,17.9523913],[-88.8139911,17.9529676],[-88.812955,17.9534854],[-88.8116508,17.953841],[-88.8102608,17.9548138],[-88.8093102,17.9561533],[-88.8082058,17.957524],[-88.807054,17.9589151],[-88.8061566,17.9605399],[-88.8050612,17.9610951],[-88.8047385,17.9617278],[-88.8048325,17.9622598],[-88.8063022,17.9624158],[-88.8065602,17.9629082],[-88.8063531,17.9634306],[-88.8050103,17.9635738],[-88.804528,17.9641331],[-88.8046067,17.965328],[-88.8042055,17.9662627],[-88.8028089,17.9671031],[-88.8018456,17.9673823],[-88.8014079,17.9675092],[-88.8000176,17.9682407],[-88.7994476,17.9698075],[-88.7992367,17.9705936],[-88.7986039,17.9710438],[-88.7975628,17.9711572],[-88.7968166,17.9712125],[-88.7961599,17.9713734],[-88.7958818,17.9716257],[-88.7956976,17.9720455],[-88.7957867,17.9725585],[-88.7960706,17.9731009],[-88.7962664,17.9737372],[-88.7959671,17.9743366],[-88.7953833,17.9743801],[-88.7946778,17.9743007],[-88.7939638,17.974124],[-88.7935938,17.9741381],[-88.7930307,17.9740057],[-88.7928862,17.9738841],[-88.7928193,17.9732397],[-88.7930475,17.9727874],[-88.7932247,17.9721129],[-88.7930627,17.9716124],[-88.7925479,17.9715602],[-88.7920743,17.9718389],[-88.7914912,17.972721],[-88.7908447,17.9736305],[-88.7905892,17.9744325],[-88.790734,17.9751682],[-88.7915507,17.9758268],[-88.7917333,17.9769857],[-88.791304,17.9777163],[-88.790761,17.978394],[-88.789777,17.9793238],[-88.7892143,17.9803704],[-88.7887773,17.9809678],[-88.7884118,17.9811286],[-88.788123,17.9811919],[-88.7878878,17.9813553],[-88.7875719,17.9814066],[-88.7871376,17.9811185],[-88.7869071,17.9807466],[-88.7867955,17.9801908],[-88.7867662,17.9793188],[-88.786408,17.9789466],[-88.785498,17.9790761],[-88.7849195,17.9794447],[-88.7844553,17.9798608],[-88.7843076,17.9801506],[-88.784347,17.9805054],[-88.7843477,17.9809059],[-88.7845735,17.9812174],[-88.7847778,17.9816405],[-88.7848931,17.9820538],[-88.7848647,17.9825429],[-88.7846778,17.9829014],[-88.7843708,17.9833186],[-88.7838959,17.9836205],[-88.7834655,17.9839326],[-88.7830029,17.9843512],[-88.7824371,17.9844521],[-88.7817821,17.9845325],[-88.7815627,17.9848214],[-88.781532,17.9850873],[-88.7817213,17.9853384],[-88.7820477,17.9855288],[-88.7825146,17.9855352],[-88.7830584,17.9854452],[-88.783656,17.9851847],[-88.7842864,17.9848707],[-88.7847201,17.9848986],[-88.7851125,17.985235],[-88.7850744,17.9857297],[-88.7848128,17.9862421],[-88.7843622,17.9867563],[-88.7839437,17.9871427],[-88.7835688,17.9874437],[-88.7832928,17.9876268],[-88.7831839,17.987851],[-88.7831325,17.9882658],[-88.7833018,17.9885193],[-88.7836692,17.9885797],[-88.7840461,17.9884806],[-88.7843989,17.9881904],[-88.7845286,17.987828],[-88.7846808,17.9874866],[-88.784975,17.9871258],[-88.7854669,17.987162],[-88.7859475,17.9875984],[-88.7862357,17.988327],[-88.7862061,17.9886991],[-88.7861951,17.988838],[-88.7860466,17.9892332],[-88.785866,17.9894683],[-88.7857471,17.9897758],[-88.7856304,17.990032],[-88.7856662,17.9902761],[-88.785791,17.9905299],[-88.7859581,17.9905709],[-88.7862466,17.9905151],[-88.7865108,17.9902081],[-88.786704,17.9898199],[-88.7871492,17.9895859],[-88.7877022,17.9896412],[-88.7879223,17.990195],[-88.7877615,17.9907916],[-88.787723,17.9913763],[-88.7879599,17.9917248],[-88.7884083,17.9921032],[-88.7886132,17.9925794],[-88.7884956,17.9930374],[-88.7876536,17.9933108],[-88.7871995,17.9935751],[-88.7865593,17.9941018],[-88.7859313,17.994804],[-88.7852765,17.9951491],[-88.7844102,17.9958595],[-88.7843392,17.9964877],[-88.7843287,17.9970157],[-88.7843918,17.997985],[-88.7841334,17.9987262],[-88.7836093,17.9994819],[-88.783085,18.0002134],[-88.7823298,18.0006442],[-88.7818244,18.0008134],[-88.7816312,18.0009612],[-88.7804177,18.0018266],[-88.7797552,18.0021363],[-88.7790159,18.0023318],[-88.777713,18.0024811],[-88.7773345,18.0027863],[-88.7772624,18.0030718],[-88.7772651,18.0033338],[-88.7774499,18.0035568],[-88.7777535,18.0039159],[-88.7778096,18.0043022],[-88.7777214,18.004615],[-88.777253,18.0047316],[-88.7763724,18.0048229],[-88.7755606,18.0049177],[-88.7746593,18.0051979],[-88.7737855,18.0051864],[-88.7730546,18.0052417],[-88.7723725,18.0055419],[-88.7717082,18.006272],[-88.7708809,18.0065277],[-88.7702588,18.0065582],[-88.7698462,18.0067852],[-88.7697469,18.0072327],[-88.7698022,18.0075796],[-88.770245,18.007774],[-88.7709713,18.0077922],[-88.7716964,18.0076863],[-88.7723681,18.007432],[-88.7729909,18.007476],[-88.7732028,18.0079206],[-88.7731312,18.0085416],[-88.773087,18.0093111],[-88.7730928,18.0098817],[-88.7728021,18.012056],[-88.7721435,18.0126973],[-88.7715297,18.0130808],[-88.7696182,18.0132522],[-88.7683921,18.013772],[-88.7680258,18.0141176],[-88.7676917,18.0146994],[-88.7671502,18.0155488],[-88.7669349,18.0160183],[-88.766967,18.0166383],[-88.7685792,18.0169213],[-88.7691279,18.0172747],[-88.7687984,18.0180717],[-88.7679248,18.0189729],[-88.7676741,18.0198671],[-88.7676836,18.0208098],[-88.76785,18.0218751],[-88.7681686,18.0225917],[-88.7682564,18.0235834],[-88.7680066,18.0245631],[-88.7684783,18.0250054],[-88.7689499,18.0254477],[-88.7691915,18.0262394],[-88.7702958,18.0276436],[-88.770745,18.0284334],[-88.7707784,18.0291774],[-88.7700598,18.0300027],[-88.7684185,18.0319937],[-88.7673195,18.0332754],[-88.766882,18.033716],[-88.7666517,18.0342982],[-88.7655957,18.0347793],[-88.7644868,18.0347894],[-88.7634552,18.0350144],[-88.7627205,18.0348594],[-88.7622113,18.0346844],[-88.7615327,18.034493],[-88.7608851,18.0346829],[-88.7597598,18.0357719],[-88.7587292,18.0358262],[-88.7580308,18.0356088],[-88.7572497,18.0360213],[-88.7569855,18.0374605],[-88.7569134,18.0378532],[-88.7561054,18.0380906],[-88.7558148,18.038068],[-88.7549903,18.0380038],[-88.7542213,18.0381087],[-88.7533793,18.0388109],[-88.751973,18.0399999],[-88.7504803,18.0401466],[-88.7495517,18.0409906],[-88.7489558,18.0409112],[-88.7481324,18.0402679],[-88.7474227,18.0402016],[-88.7466766,18.041589],[-88.7459766,18.0425037],[-88.7452482,18.0429119],[-88.743805,18.0439234],[-88.7429335,18.0441492],[-88.7407513,18.0437086],[-88.7403159,18.0443318],[-88.7404297,18.0474814],[-88.7396105,18.0481681],[-88.737405,18.0479456],[-88.7360042,18.0484305],[-88.7335096,18.048977],[-88.7314832,18.0495721],[-88.7293654,18.0512412],[-88.7285511,18.0520379],[-88.7270944,18.0531481],[-88.7264536,18.0535578],[-88.7256436,18.0539149],[-88.7248443,18.0544453],[-88.7242059,18.055042],[-88.7222962,18.0575615],[-88.7213467,18.0587805],[-88.7209336,18.0591579],[-88.7204076,18.0595022],[-88.7202792,18.0595863],[-88.7196945,18.059826],[-88.7186702,18.0600606],[-88.7170015,18.0604227],[-88.7166797,18.0606114],[-88.7164812,18.0608307],[-88.7163739,18.0610704],[-88.7164222,18.0613867],[-88.7165295,18.0617029],[-88.7169157,18.06232],[-88.7170678,18.0624977],[-88.7172605,18.0627229],[-88.7176882,18.0632431],[-88.7181173,18.06385],[-88.7182729,18.0643549],[-88.7183212,18.0649312],[-88.7183051,18.0653749],[-88.718348,18.0658441],[-88.7185089,18.0662419],[-88.7188362,18.0667468],[-88.7190277,18.0672524],[-88.7190829,18.0678177],[-88.7189542,18.0684144],[-88.7189005,18.0689091],[-88.7188791,18.0696129],[-88.7189542,18.0702555],[-88.7190829,18.0708981],[-88.7192546,18.0713876],[-88.7192546,18.0717905],[-88.7191741,18.0720659],[-88.7189327,18.0722546],[-88.7186072,18.0723556],[-88.7181495,18.0723209],[-88.7171348,18.0719386],[-88.7164252,18.0719857],[-88.7155687,18.0721926],[-88.7151132,18.0726728],[-88.7142657,18.0732542],[-88.7139653,18.0737539],[-88.7137829,18.0743863],[-88.7137561,18.0749575],[-88.7139223,18.075447],[-88.7141959,18.0757632],[-88.7146734,18.0762018],[-88.7149738,18.0765944],[-88.7152098,18.0773186],[-88.7153171,18.0781192],[-88.7152749,18.0789994],[-88.7152431,18.0794169],[-88.7152593,18.0801435],[-88.7153894,18.0806691],[-88.7156821,18.0810092],[-88.7160399,18.0812256],[-88.7163977,18.0813493],[-88.7169831,18.0813029],[-88.7178937,18.0809628],[-88.7185605,18.0808855],[-88.719276,18.0813647],[-88.7192923,18.0813647],[-88.7195037,18.0819367],[-88.7195037,18.0825087],[-88.719585,18.0832043],[-88.7196663,18.0837454],[-88.7195199,18.0842246],[-88.7190646,18.0845647],[-88.718528,18.0849821],[-88.7178612,18.0854304],[-88.7175848,18.0858477],[-88.7176498,18.086296],[-88.7178124,18.086667],[-88.7182352,18.087409],[-88.7186418,18.0882901],[-88.7180889,18.0892949],[-88.7176661,18.0899596],[-88.7169831,18.0906861],[-88.7167066,18.0911344],[-88.7160724,18.0930976],[-88.715796,18.0938705],[-88.7153894,18.094597],[-88.71443,18.0951225],[-88.7135843,18.0953544],[-88.7122184,18.0957563],[-88.711454,18.0959418],[-88.7108849,18.0960345],[-88.7105271,18.0962819],[-88.710332,18.0965137],[-88.7103808,18.0973484],[-88.7110638,18.1001771],[-88.7119256,18.1038095],[-88.7123647,18.1043968],[-88.712755,18.1047524],[-88.7130965,18.1049069],[-88.7136169,18.1050615],[-88.7138771,18.1052933],[-88.7141047,18.1056952],[-88.7143161,18.1061898],[-88.7145113,18.1065299],[-88.7151618,18.1066844],[-88.7159261,18.1063753],[-88.7164464,18.1063598],[-88.7170969,18.1067463],[-88.7175685,18.1072718],[-88.7184141,18.1077973],[-88.7186906,18.1083692],[-88.7185442,18.1089411],[-88.7180564,18.1093739],[-88.7174709,18.1101776],[-88.7172921,18.1107031],[-88.7161862,18.111955],[-88.7161862,18.1118159],[-88.7146739,18.1132379],[-88.713747,18.1141189],[-88.7128363,18.1147526],[-88.7116654,18.115309],[-88.7110963,18.1156645],[-88.7105759,18.1164373],[-88.7101206,18.1170709],[-88.7096327,18.1180137],[-88.70934,18.1189102],[-88.7092424,18.119992],[-88.7092912,18.1207957],[-88.7095351,18.1220631],[-88.7096652,18.1228049],[-88.7094701,18.1237168],[-88.709031,18.1245513],[-88.708722,18.125355],[-88.7077626,18.1266223],[-88.7071446,18.1274414],[-88.7066405,18.1281678],[-88.7060226,18.1288478],[-88.7056648,18.1297905],[-88.7053233,18.1310114],[-88.7050631,18.1322168],[-88.7049005,18.1328659],[-88.7043639,18.1333914],[-88.7040712,18.1338704],[-88.7037947,18.1344423],[-88.7031605,18.1349059],[-88.7022661,18.1359567],[-88.7016644,18.1365285],[-88.7011115,18.1367758],[-88.7002821,18.1371158],[-88.6998268,18.1373631],[-88.6995178,18.1377339],[-88.6992576,18.1383366],[-88.6988186,18.1398202],[-88.6985746,18.1404538],[-88.6985421,18.1413037],[-88.6986072,18.141721],[-88.6984933,18.1422773],[-88.6980705,18.1429882],[-88.697729,18.1431427],[-88.6973875,18.1434054],[-88.6968834,18.1443326],[-88.6965907,18.1449507],[-88.6962492,18.1454916],[-88.6960703,18.1463879],[-88.6959077,18.1467279],[-88.6956312,18.1472223],[-88.6953548,18.1476396],[-88.6950133,18.1481804],[-88.6946555,18.1483813],[-88.6935172,18.1490612],[-88.6929155,18.1494012],[-88.6924927,18.1496794],[-88.6922,18.150282],[-88.691826,18.1508383],[-88.6914032,18.1516418],[-88.6910617,18.1521518],[-88.6908015,18.1528162],[-88.6907039,18.1533725],[-88.6903624,18.1542533],[-88.690151,18.1546551],[-88.6899721,18.1551032],[-88.689159,18.1556131],[-88.689159,18.1556286],[-88.6886874,18.1558295],[-88.6883134,18.1559685],[-88.6878093,18.1558913],[-88.6871425,18.1558758],[-88.6862644,18.1558604],[-88.685744,18.1561076],[-88.6853375,18.1563548],[-88.6848171,18.1566175],[-88.684004,18.1572047],[-88.6836625,18.1575755],[-88.6828169,18.1579464],[-88.6823778,18.15824],[-88.6819062,18.1584872],[-88.6813696,18.1588426],[-88.6809305,18.1591517],[-88.6803939,18.1595843],[-88.6801825,18.1598006],[-88.6800524,18.1600633],[-88.6799385,18.160635],[-88.6798735,18.161593],[-88.6798735,18.162072],[-88.6799385,18.1623965],[-88.6802638,18.1626592],[-88.6805077,18.162891],[-88.6806866,18.1631691],[-88.6810606,18.1635863],[-88.6813208,18.1638953],[-88.6816623,18.164158],[-88.6822315,18.1653169],[-88.6826055,18.1658113],[-88.6829795,18.166213],[-88.6831584,18.1667847],[-88.683386,18.1669547],[-88.6832722,18.1674646],[-88.6832072,18.1678509],[-88.6831746,18.1683144],[-88.6833535,18.1688552],[-88.6832885,18.1693187],[-88.6834674,18.1696587],[-88.6837275,18.1704158],[-88.6838251,18.1710183],[-88.6839064,18.1713892],[-88.6840853,18.1718681],[-88.6841178,18.1724553],[-88.6841991,18.1728879],[-88.6842154,18.1734287],[-88.6843292,18.1738767],[-88.6844105,18.1744021],[-88.6844919,18.1748347],[-88.6845894,18.1755763],[-88.684687,18.1758853],[-88.6847033,18.176457],[-88.6845406,18.1766269],[-88.6844105,18.1770132],[-88.684378,18.1773067],[-88.6842805,18.1776776],[-88.6844756,18.1779248],[-88.6847683,18.1780329],[-88.6851749,18.1781102],[-88.6855489,18.1781102],[-88.6863782,18.1781411],[-88.6869637,18.1782647],[-88.6880857,18.178481],[-88.6889151,18.1786355],[-88.6896469,18.1786509],[-88.6906063,18.1787436],[-88.6913869,18.1788209],[-88.6921024,18.1788518],[-88.6927692,18.1788981],[-88.6937449,18.1789136],[-88.694558,18.1788363],[-88.6954036,18.1789599],[-88.6959565,18.179238],[-88.6966395,18.179547],[-88.6971761,18.1802732],[-88.6975014,18.1807212],[-88.697664,18.1812929],[-88.6976315,18.1818336],[-88.69742,18.1823744],[-88.6971436,18.1828379],[-88.6967045,18.1833014],[-88.6960866,18.1838112],[-88.6954849,18.1845683],[-88.6950783,18.1850935],[-88.6948019,18.1858351],[-88.6943791,18.1864995],[-88.6941351,18.1870402],[-88.6935497,18.1874264],[-88.6928667,18.1878436],[-88.6923789,18.1885388],[-88.6913744,18.1893919],[-88.6893092,18.1915857],[-88.6876505,18.1939494],[-88.687,18.1944746],[-88.6858617,18.194799],[-88.6815035,18.1945673],[-88.6734701,18.1941656],[-88.672348,18.1947527],[-88.6715512,18.1954942],[-88.6708194,18.1961431],[-88.6699088,18.197379],[-88.6693559,18.198414],[-88.668494,18.2003605],[-88.6672255,18.2021216],[-88.6660872,18.2028477],[-88.6634853,18.2034038],[-88.6622332,18.2036046],[-88.6608672,18.2035892],[-88.658997,18.2035274],[-88.6579563,18.2038209],[-88.6559723,18.2053194],[-88.6513865,18.208517],[-88.6494351,18.2091658],[-88.6477601,18.2098919],[-88.646264,18.2112976],[-88.6445077,18.2127805],[-88.6429954,18.2145724],[-88.6416944,18.2160707],[-88.6410114,18.216426],[-88.6402308,18.2157155],[-88.6395804,18.2149277],[-88.6384746,18.214835],[-88.6378078,18.2143561],[-88.6370272,18.2140472],[-88.6359377,18.2143407],[-88.6347018,18.2139854],[-88.6338693,18.2136468],[-88.6331129,18.2132748],[-88.6327696,18.2131576],[-88.6323613,18.213122],[-88.6320477,18.2131594],[-88.6319046,18.2134774],[-88.6317876,18.2137446],[-88.6316443,18.2140373],[-88.6319487,18.2143359],[-88.6320232,18.2146104],[-88.6321908,18.2149333],[-88.6323063,18.2152659],[-88.6323239,18.2157347],[-88.63201,18.2162443],[-88.6317602,18.2165],[-88.6316698,18.2167796],[-88.6312984,18.2168081],[-88.6311276,18.2169996],[-88.6307041,18.2171427],[-88.6304674,18.2173855],[-88.6302059,18.2178186],[-88.6298513,18.2182272],[-88.6292962,18.2186238],[-88.6290074,18.2189684],[-88.6284089,18.2188595],[-88.6277715,18.2188395],[-88.62708,18.2187187],[-88.6264686,18.2186351],[-88.6258052,18.2186788],[-88.6252904,18.219],[-88.6248566,18.21946],[-88.624716,18.2200568],[-88.6245511,18.2208821],[-88.6241441,18.2213672],[-88.6237469,18.2215484],[-88.6233231,18.2216534],[-88.6225807,18.2217737],[-88.6221057,18.2220946],[-88.6217502,18.2224145],[-88.621395,18.2227597],[-88.6210782,18.2229652],[-88.6206405,18.2230069],[-88.6202696,18.2230987],[-88.6199381,18.2231396],[-88.6196206,18.223269],[-88.6193159,18.223335],[-88.6191182,18.2234887],[-88.619013,18.2236037],[-88.6188683,18.2237443],[-88.6183637,18.2237359],[-88.6181123,18.2238268],[-88.6177526,18.2236904],[-88.6171813,18.2236445],[-88.6168196,18.2232926],[-88.6164588,18.2230422],[-88.6159803,18.2230462],[-88.6155444,18.223278],[-88.6153621,18.2236725],[-88.6151659,18.223991],[-88.6148931,18.2246397],[-88.6147924,18.2252357],[-88.6141721,18.2256339],[-88.6139784,18.2262312],[-88.6139992,18.2270422],[-88.6139406,18.2278919],[-88.6138667,18.2285136],[-88.6134977,18.2288082],[-88.6127974,18.2291816],[-88.6121778,18.2296558],[-88.6119155,18.2300129],[-88.6119532,18.2302865],[-88.6119563,18.2306227],[-88.6121979,18.2310877],[-88.612354,18.2316993],[-88.6124624,18.2320883],[-88.6123907,18.2322689],[-88.612319,18.2324394],[-88.6121418,18.2325409],[-88.6119228,18.2326428],[-88.6117252,18.2327944],[-88.6115584,18.2328758],[-88.6113807,18.2329173],[-88.6111304,18.2330294],[-88.6107548,18.2331925],[-88.6104515,18.233235],[-88.6101487,18.2333376],[-88.6097956,18.2336605],[-88.609453,18.2339933],[-88.609197,18.2346253],[-88.6091071,18.2355528],[-88.6089707,18.2363794],[-88.6088534,18.2373262],[-88.6084114,18.2382674],[-88.6060156,18.2400757],[-88.6054182,18.240392],[-88.6046861,18.2410344],[-88.6044206,18.2415181],[-88.6041828,18.2430679],[-88.6036423,18.2448504],[-88.6036714,18.2452212],[-88.6038881,18.2454339],[-88.6042505,18.2454707],[-88.6047173,18.2453466],[-88.6054012,18.2450523],[-88.6058562,18.2450054],[-88.6062662,18.245092],[-88.6064435,18.2453325],[-88.6064698,18.2455976],[-88.6063565,18.2459579],[-88.6060078,18.2463369],[-88.6053431,18.2467821],[-88.6048416,18.2471677],[-88.6045402,18.2476047],[-88.6043582,18.2481265],[-88.6043185,18.2487754],[-88.6043245,18.2492614],[-88.6042538,18.2497397],[-88.6040501,18.2500223],[-88.603747,18.2502349],[-88.6033542,18.2504469],[-88.6031686,18.2506965],[-88.6031302,18.2508435],[-88.6032043,18.25116],[-88.6033042,18.2513752],[-88.6037338,18.2516645],[-88.6043196,18.2518883],[-88.6049169,18.2521229],[-88.6052152,18.252303],[-88.6054918,18.2526353],[-88.6056079,18.2530247],[-88.6056697,18.253697],[-88.6056353,18.2541348],[-88.605537,18.2543956],[-88.6054401,18.2547328],[-88.6054235,18.2550503],[-88.6055295,18.2556189],[-88.6056331,18.2562445],[-88.6055774,18.2564787],[-88.6054371,18.2568005],[-88.6050175,18.2570239],[-88.6043508,18.257256],[-88.6040191,18.2574523],[-88.603904,18.2577709],[-88.6040109,18.2581077],[-88.604184,18.2583866],[-88.6046011,18.2586232],[-88.6050649,18.2588602],[-88.6053573,18.2591819],[-88.6055584,18.2595173],[-88.60591,18.2605377],[-88.6063128,18.2615034],[-88.6064203,18.2620074],[-88.6064234,18.2628318],[-88.6065318,18.2637574],[-88.6065229,18.2641985],[-88.6063416,18.264581],[-88.6060174,18.2649341],[-88.6054565,18.2652942],[-88.6046141,18.2657167],[-88.6038847,18.2661755],[-88.6033451,18.2666755],[-88.6028494,18.2672503],[-88.6025271,18.2678294],[-88.6023754,18.2682662],[-88.6023601,18.2687726],[-88.6024882,18.2692444],[-88.6027233,18.2698165],[-88.6027797,18.2702252],[-88.6027206,18.2705144],[-88.6025042,18.2708859],[-88.6018945,18.2715344],[-88.6012706,18.2723841],[-88.6007396,18.273244],[-88.6002665,18.27429],[-88.5999744,18.2752043],[-88.599893,18.2759648],[-88.5999716,18.2768253],[-88.6004579,18.2778007],[-88.6008167,18.2783718],[-88.6009093,18.2788269],[-88.6009842,18.2792822],[-88.6007787,18.28001],[-88.5999361,18.2827292],[-88.5996169,18.2834348],[-88.599149,18.2843621],[-88.5990406,18.2852096],[-88.598764,18.2857942],[-88.5986138,18.2865003],[-88.5979118,18.2879517],[-88.597657,18.2883143],[-88.5972537,18.2888784],[-88.5972804,18.2894157],[-88.5974582,18.2901586],[-88.5981315,18.2910245],[-88.5987227,18.2912374],[-88.5990252,18.2910533],[-88.5995739,18.2907764],[-88.6002748,18.2905164],[-88.6007303,18.29044],[-88.6015486,18.2905421],[-88.6022538,18.2907359],[-88.6025796,18.2910237],[-88.6030222,18.2916414],[-88.6032895,18.2917662],[-88.6037832,18.2917076],[-88.604403,18.2914484],[-88.6045904,18.2909472],[-88.6047946,18.2906059],[-88.6050037,18.2906041],[-88.6054032,18.2906371],[-88.6056138,18.2907987],[-88.605749,18.2910336],[-88.6058477,18.2914322],[-88.6058316,18.291741],[-88.605588,18.2921243],[-88.6049864,18.2928556],[-88.6034231,18.2941844],[-88.6027658,18.2950613],[-88.6020886,18.2958296],[-88.6011242,18.2963823],[-88.6005359,18.2964961],[-88.5995302,18.2966861],[-88.5986572,18.2968386],[-88.598354,18.2969501],[-88.5979928,18.2974335],[-88.5973755,18.298528],[-88.5966657,18.2998956],[-88.5965947,18.3004409],[-88.5962921,18.3009111],[-88.595868,18.3012544],[-88.5953017,18.3016215],[-88.5948049,18.3021988],[-88.5934268,18.3040564],[-88.592367,18.3051567],[-88.5915202,18.3060018],[-88.5905058,18.3066897],[-88.5896598,18.3076254],[-88.5888489,18.3086152],[-88.5883588,18.3090732],[-88.5876534,18.3096327],[-88.5865628,18.310949],[-88.5859633,18.3119162],[-88.58517,18.3133292],[-88.5846394,18.3137863],[-88.5838658,18.3141065],[-88.5833704,18.3144503],[-88.5828053,18.3149533],[-88.5822637,18.3154334],[-88.5813927,18.3162334],[-88.5806503,18.3170297],[-88.5803318,18.3174728],[-88.5798441,18.3179558],[-88.5796739,18.3182985],[-88.5795038,18.3186008],[-88.5792064,18.3190642],[-88.579078,18.3195281],[-88.5790559,18.3198106],[-88.5788359,18.3204134],[-88.5783873,18.3206889],[-88.5778174,18.3206709],[-88.5772467,18.3205624],[-88.5768418,18.3204072],[-88.5766424,18.3202133],[-88.5763958,18.3199821],[-88.5761224,18.3197856],[-88.5756888,18.3199015],[-88.5752661,18.3202247],[-88.5752068,18.3205456],[-88.5749726,18.3210496],[-88.5748447,18.3213924],[-88.5743773,18.3220975],[-88.5739936,18.3226401],[-88.5726142,18.3236977],[-88.571434,18.327629],[-88.569653,18.3298696],[-88.5662412,18.3329452],[-88.5631728,18.3353284],[-88.5555339,18.3458381],[-88.551886,18.3513575],[-88.5477876,18.3548808],[-88.5440325,18.3609905],[-88.5452342,18.3679349],[-88.5508775,18.3729038],[-88.5517358,18.374818],[-88.550899,18.3777503],[-88.5492253,18.3802346],[-88.5478305,18.3817822],[-88.5467791,18.3843479],[-88.5459423,18.389133],[-88.5448265,18.3915764],[-88.5433244,18.3928185],[-88.5414791,18.3937755],[-88.5406637,18.3955266],[-88.5390114,18.3971962],[-88.537724,18.3991305],[-88.5363292,18.4004335],[-88.5321021,18.4076207],[-88.5299134,18.4167213],[-88.5288834,18.422788],[-88.5281539,18.4284271],[-88.5278105,18.4351449],[-88.5237765,18.4451397],[-88.5213732,18.4573117],[-88.519442,18.4611178],[-88.5170817,18.4637638],[-88.5135841,18.4650867],[-88.5098076,18.4683228],[-88.5073185,18.4704598],[-88.5031986,18.47278],[-88.4956669,18.4777458],[-88.4941864,18.4804118],[-88.4922337,18.4832202],[-88.4906285,18.4845213],[-88.4900974,18.484852],[-88.4896683,18.4850504],[-88.489325,18.4850402],[-88.488869,18.4848469],[-88.4883165,18.4845518],[-88.4875225,18.484445],[-88.4870344,18.484562],[-88.48675,18.484796],[-88.4864389,18.4853608],[-88.4859037,18.4861711],[-88.4839384,18.4883253],[-88.4812474,18.49134],[-88.4779215,18.4937209],[-88.4753465,18.49425],[-88.474338,18.4936599],[-88.4739303,18.4916046],[-88.4727287,18.489305],[-88.47157,18.4892033],[-88.4702396,18.4898545],[-88.4683513,18.4900173],[-88.4677291,18.4890405],[-88.4668278,18.4876363],[-88.4656477,18.4866595],[-88.464446,18.486863],[-88.4594035,18.4892847],[-88.4573221,18.4889591],[-88.4561417,18.4885495],[-88.4555626,18.4883486],[-88.4543824,18.4873107],[-88.4536314,18.4855402],[-88.4535026,18.4827725],[-88.4526014,18.4811241],[-88.447752,18.4754664],[-88.4470653,18.4755275],[-88.4457135,18.476138],[-88.4444046,18.4780511],[-88.4430956,18.4804525],[-88.4421301,18.4812462],[-88.4410357,18.4814497],[-88.4402632,18.481348],[-88.4384608,18.4816939],[-88.4348774,18.4826097],[-88.4326116,18.4845808],[-88.4280109,18.4853367],[-88.423655,18.4870665],[-88.4212732,18.4895492],[-88.4173679,18.4922151],[-88.4133124,18.4922151],[-88.410716,18.492968],[-88.4075505,18.4946972],[-88.4053838,18.4955384],[-88.4019881,18.496001],[-88.4004135,18.4951423],[-88.3996439,18.4946774],[-88.3977117,18.4931291],[-88.3960604,18.4914621],[-88.3939576,18.4887352],[-88.3923912,18.4874735],[-88.389709,18.4859676],[-88.3890223,18.4850925],[-88.3881426,18.4830371],[-88.387134,18.4815922],[-88.382585,18.4793943],[-88.3802676,18.4788041],[-88.377285,18.4789058],[-88.3752894,18.4796385],[-88.3734011,18.4810834],[-88.372178,18.4827522],[-88.3705511,18.4842684],[-88.3661055,18.4862118],[-88.3613419,18.4863797],[-88.3589387,18.4857692],[-88.3537674,18.4842632],[-88.3517289,18.4842632],[-88.3463859,18.4857488],[-88.3396268,18.4867663],[-88.3331465,18.4880281],[-88.3268165,18.4904294],[-88.3261219,18.4903312],[-88.3240699,18.489188],[-88.3208279,18.4885797],[-88.3190885,18.4882144],[-88.3184046,18.487834],[-88.3172801,18.4872922],[-88.3162754,18.4869179],[-88.3155434,18.486502],[-88.314638,18.4861061],[-88.3143727,18.4858177],[-88.3142755,18.485745],[-88.3137111,18.4855684],[-88.3103584,18.4852164],[-88.3044996,18.4787531],[-88.2889866,18.4752729],[-88.2700411,18.4749739],[-88.2608008,18.4749228],[-88.257742,18.474694],[-88.2547901,18.4741136],[-88.2500943,18.4730722],[-88.2496336,18.4155524],[-88.1425563,18.4152834],[-88.065784,18.4150785],[-88.0303658,18.4147942],[-88.0306437,18.3217668],[-88.0306709,18.2728083],[-88.0305887,18.2528075],[-88.0307388,18.2508068],[-88.0311671,18.1675239],[-87.9325392,18.1675306],[-87.9325307,18.1703244],[-87.9194268,18.1514733],[-87.9188089,18.1511509],[-87.9170664,18.1503729],[-87.9153691,18.1501099],[-87.9135315,18.149974],[-87.9116129,18.1500464],[-87.9107391,18.150168],[-87.9099631,18.1503524],[-87.9090936,18.1507271],[-87.9082222,18.1509753],[-87.9075106,18.1513853],[-87.9068353,18.1518404],[-87.9061363,18.1523408],[-87.9053929,18.1530041],[-87.9046236,18.1535771],[-87.9026171,18.1553489],[-87.9018488,18.1559491],[-87.8886049,18.1683567],[-87.8878476,18.1689206],[-87.8848133,18.1721973],[-87.8837708,18.1735669],[-87.8832465,18.1744189],[-87.8826109,18.1750997],[-87.8783018,18.1808586],[-87.8772494,18.1823457],[-87.876601,18.1829542],[-87.8747749,18.1860716],[-87.8707747,18.1935552],[-87.8703028,18.1941019],[-87.8700529,18.1947685],[-87.8698392,18.1963116],[-87.8691485,18.1973417],[-87.8688336,18.1976764],[-87.8686442,18.1977371],[-87.86814,18.1981325],[-87.8678871,18.1981337],[-87.8675078,18.1982269],[-87.8673175,18.1981069],[-87.8666525,18.1980184],[-87.865799,18.1981137],[-87.8654837,18.1983569],[-87.8652314,18.198479],[-87.8650426,18.1986606],[-87.8648003,18.1986617],[-87.8642525,18.1981433],[-87.8633665,18.1974435],[-87.8627702,18.1958995],[-87.8624678,18.194161],[-87.8622166,18.1921743],[-87.8617896,18.190808],[-87.8610813,18.1902958],[-87.8604188,18.1901228],[-87.8601575,18.1899189],[-87.8600484,18.1897971],[-87.8599354,18.189463],[-87.8597187,18.1891856],[-87.8598098,18.1887202],[-87.8599668,18.1884875],[-87.8599009,18.1882429],[-87.859601,18.1880371],[-87.8595727,18.1876154],[-87.8595005,18.1873197],[-87.859389,18.1871586],[-87.8591347,18.1869796],[-87.8589808,18.1867469],[-87.8588537,18.1863531],[-87.8588804,18.1862204],[-87.8588462,18.186067],[-87.8587426,18.1859447],[-87.8582653,18.1856642],[-87.8578923,18.1853007],[-87.8575237,18.1851984],[-87.857395,18.1847185],[-87.8576203,18.1845234],[-87.8575848,18.1844284],[-87.8573617,18.1841901],[-87.8570608,18.1840576],[-87.8570497,18.1838526],[-87.8572118,18.1837454],[-87.8572429,18.1835387],[-87.857345,18.1833446],[-87.8572501,18.1832092],[-87.8566561,18.1826391],[-87.8564049,18.1825645],[-87.8559416,18.1827511],[-87.855626,18.1831028],[-87.8550932,18.183377],[-87.8544115,18.183512],[-87.8540159,18.1837789],[-87.8538247,18.1842419],[-87.8535734,18.1846782],[-87.8531578,18.1844197],[-87.8520757,18.1843552],[-87.8511651,18.1843523],[-87.850355,18.1844239],[-87.8499625,18.1845611],[-87.8496171,18.1847192],[-87.8493408,18.1849519],[-87.8490802,18.1853755],[-87.8487097,18.1857185],[-87.8484302,18.1859363],[-87.8482913,18.1872244],[-87.8446273,18.1852084],[-87.8430395,18.1817122],[-87.8123669,18.1616211],[-87.7438342,18.1165735],[-87.7442832,18.1121871],[-87.7728852,18.0836529],[-87.8090166,18.0310171],[-87.8399031,17.9545287],[-87.9104175,17.8680236],[-87.9605352,17.7531731],[-87.7057492,17.7390066],[-87.4531952,17.6322197],[-87.4270882,17.0632081]]]]}}]}